[{"OBJECT_NAME":"ORBCOMM FM04","OBJECT_ID":"1998-007C","EPOCH":"2026-03-09T14:44:15.821664","MEAN_MOTION":14.35529153,"ECCENTRICITY":0.0038795,"INCLINATION":107.9614,"RA_OF_ASC_NODE":324.5497,"ARG_OF_PERICENTER":142.9338,"MEAN_ANOMALY":217.4493,"EPHEMERIS_TYPE":0,"CLASSIFICATION_TYPE":"U","NORAD_CAT_ID":25159,"ELEMENT_SET_NO":999,"REV_AT_EPOCH":46230,"BSTAR":0.0004125,"MEAN_MOTION_DOT":1.067e-5,"MEAN_MOTION_DDOT":0},{"OBJECT_NAME":"NOAA 16 DEB","OBJECT_ID":"2000-055PV","EPOCH":"2026-02-18T08:52:04.629792","MEAN_MOTION":14.31937349,"ECCENTRICITY":0.000859,"INCLINATION":98.6439,"RA_OF_ASC_NODE":96.033,"ARG_OF_PERICENTER":308.3887,"MEAN_ANOMALY":51.6524,"EPHEMERIS_TYPE":0,"CLASSIFICATION_TYPE":"U","NORAD_CAT_ID":41715,"ELEMENT_SET_NO":999,"REV_AT_EPOCH":50954,"BSTAR":0.0015642,"MEAN_MOTION_DOT":4.151e-5,"MEAN_MOTION_DDOT":0}]
